#Pass ID: 20250119_034259_FENGYUN 3E
#Satellite: FENGYUN 3E
#Configuration: FENGYUN 3E
#Start time: 2025-01-19 03:43:04.754354

#LorettStation: 1.0.0 05.05.2024
#Station: Regia
#Location: 37.494653 lon 55.929028 lat
#TLE: 1 49008U 21062A   25018.78152678  .00000054  00000+0  46250-4 0  9991
#TLE: 2 49008  98.7399  23.2502 0002486 115.2343 244.9091 14.19833610183581

#Time	Az	El	Level	SNR
#Closed at: 2025-01-19 03:42:59.756292